NORAD_CAT_ID,OBJECT_NAME,OBJECT_TYPE,EPOCH,MEAN_MOTION,ECCENTRICITY,INCLINATION,RA_OF_ASC_NODE,ARG_OF_PERICENTER,MEAN_ANOMALY,BSTAR,MEAN_MOTION_DOT,MEAN_MOTION_DDOT,TLE_LINE0,TLE_LINE1,TLE_LINE2,SEMIMAJOR_AXIS,PERIOD,APOGEE,PERIGEE,DECAYED
55287.0,STARLINK-5341,PAYLOAD,2023-05-22 06:01:37,15.69929387,0.0003186,69.9992,81.9953,258.285,101.7988,6.5627e-06,5.77e-06,0.0,0 STARLINK-5341,1 55287U 23010U   23142.25112395  .00000577  00000-0  65627-5 0  9993,2 55287  69.9992  81.9953 0003186 258.2850 101.7988 15.69929387 20124,6737.236,91.724,361.248,356.955,0.0
55287.0,STARLINK-5341,PAYLOAD,2023-05-22 15:12:07,15.69932077,0.0003411,69.9989,80.9193,264.4489,95.6318,2.8699e-05,3.24e-05,0.0,0 STARLINK-5341,1 55287U 23010U   23142.63341885  .00003240  00000-0  28699-4 0  9990,2 55287  69.9989  80.9193 0003411 264.4489  95.6318 15.69932077 20187,6737.228,91.724,361.391,356.795,0.0
55287.0,STARLINK-5341,PAYLOAD,2023-05-23 04:57:55,15.6990166,0.0003059,70.0021,79.3079,260.0803,100.0047,2.9557e-05,3.339e-05,0.0,0 STARLINK-5341,1 55287U 23010U   23143.20689131  .00003339  00000-0  29557-4 0  9996,2 55287  70.0021  79.3079 0003059 260.0803 100.0047 15.69901660 19960,6737.315,91.725,361.241,357.119,0.0
55287.0,STARLINK-5341,PAYLOAD,2023-05-23 20:15:25,15.69935626,0.0003019,70.0016,77.5172,254.4828,105.6034,2.915e-05,3.295e-05,0.0,0 STARLINK-5341,1 55287U 23010U   23143.84404160  .00003295  00000-0  29150-4 0  9993,2 55287  70.0016  77.5172 0003019 254.4828 105.6034 15.69935626 20371,6737.218,91.724,361.117,357.049,0.0
55287.0,STARLINK-5341,PAYLOAD,2023-05-24 02:22:26,15.69916045,0.0003039,70.0024,76.7992,260.1927,99.8926,7.7137e-06,7.15e-06,0.0,0 STARLINK-5341,1 55287U 23010U   23144.09891736  .00000715  00000-0  77137-5 0  9993,2 55287  70.0024  76.7992 0003039 260.1927  99.8926 15.69916045 20106,6737.274,91.725,361.187,357.092,0.0
55287.0,STARLINK-5341,PAYLOAD,2023-05-24 05:25:56,15.69916489,0.0003403,70.0017,76.4399,264.2345,95.8463,4.5852e-06,3.39e-06,0.0,0 STARLINK-5341,1 55287U 23010U   23144.22634976  .00000339  00000-0  45852-5 0  9990,2 55287  70.0017  76.4399 0003403 264.2345  95.8463 15.69916489 20430,6737.273,91.725,361.431,356.845,0.0
55287.0,STARLINK-5341,PAYLOAD,2023-05-25 22:43:14,15.69923802,0.0003061,70.0011,71.6031,252.7835,107.3026,1.1117e-05,1.124e-05,0.0,0 STARLINK-5341,1 55287U 23010U   23145.94669889  .00001124  00000-0  11117-4 0  9990,2 55287  70.0011  71.6031 0003061 252.7835 107.3026 15.69923802 20701,6737.252,91.724,361.179,357.055,0.0
55287.0,STARLINK-5341,PAYLOAD,2023-05-26 04:50:15,15.69922529,0.0003159,70.0002,70.8866,258.3609,101.7232,8.2464e-06,7.79e-06,0.0,0 STARLINK-5341,1 55287U 23010U   23146.20156782  .00000779  00000-0  82464-5 0  9992,2 55287  70.0002  70.8866 0003159 258.3609 101.7232 15.69922529 20439,6737.256,91.724,361.249,356.992,0.0
55287.0,STARLINK-5341,PAYLOAD,2023-05-26 21:39:31,15.69923142,0.000349,70.0003,68.9194,256.0756,104.0051,1.2891e-05,1.337e-05,0.0,0 STARLINK-5341,1 55287U 23010U   23146.90245105  .00001337  00000-0  12891-4 0  9994,2 55287  70.0003  68.9194 0003490 256.0756 104.0051 15.69923142 20851,6737.254,91.724,361.47,356.768,0.0
55287.0,STARLINK-5341,PAYLOAD,2023-05-27 05:18:17,15.69925157,0.0002751,70.0004,68.0232,259.4973,100.5913,1.3839e-05,1.452e-05,0.0,0 STARLINK-5341,1 55287U 23010U   23147.22103465  .00001452  00000-0  13839-4 0  9993,2 55287  70.0004  68.0232 0002751 259.4973 100.5913 15.69925157 20590,6737.248,91.724,360.967,357.26,0.0
55287.0,STARLINK-5341,PAYLOAD,2023-05-27 22:07:33,15.69925871,0.0003348,69.9996,66.0519,247.8913,112.1927,1.3475e-05,1.408e-05,0.0,0 STARLINK-5341,1 55287U 23010U   23147.92191552  .00001408  00000-0  13475-4 0  9991,2 55287  69.9996  66.0519 0003348 247.8913 112.1927 15.69925871 21016,6737.246,91.724,361.367,356.855,0.0
55287.0,STARLINK-5341,PAYLOAD,2023-05-28 04:14:34,15.69913655,0.0003106,69.9994,65.3344,255.7531,104.332,-2.0236e-06,-4.56e-06,0.0,0 STARLINK-5341,1 55287U 23010U   23148.17679352 -.00000456  00000-0 -20236-5 0  9996,2 55287  69.9994  65.3344 0003106 255.7531 104.3320 15.69913655 20744,6737.281,91.725,361.239,357.053,0.0
55287.0,STARLINK-5341,PAYLOAD,2023-05-28 21:03:50,15.69928455,0.0003514,69.9986,63.3628,259.5457,100.5343,8.5781e-06,8.19e-06,0.0,0 STARLINK-5341,1 55287U 23010U   23148.87766607  .00000819  00000-0  85781-5 0  9990,2 55287  69.9986  63.3628 0003514 259.5457 100.5343 15.69928455 20859,6737.239,91.724,361.471,356.736,0.0
55287.0,STARLINK-5341,PAYLOAD,2023-05-29 03:10:50,15.69923803,0.0003313,69.9982,62.6459,253.8656,106.2175,1.4467e-05,1.527e-05,0.0,0 STARLINK-5341,1 55287U 23010U   23149.13253435  .00001527  00000-0  14467-4 0  9999,2 55287  69.9982  62.6459 0003313 253.8656 106.2175 15.69923803 21202,6737.252,91.724,361.349,356.885,0.0
55287.0,STARLINK-5341,PAYLOAD,2023-05-29 21:31:52,15.69925614,0.0003441,69.9985,60.4968,261.8523,98.2283,6.7173e-06,5.95e-06,0.0,0 STARLINK-5341,1 55287U 23010U   23149.89713467  .00000595  00000-0  67173-5 0  9995,2 55287  69.9985  60.4968 0003441 261.8523  98.2283 15.69925614 21325,6737.247,91.724,361.43,356.794,0.0
55287.0,STARLINK-5341,PAYLOAD,2023-05-30 03:38:52,15.69928766,0.000332,69.9985,59.7786,268.8165,91.2651,6.908e-06,6.18e-06,0.0,0 STARLINK-5341,1 55287U 23010U   23150.15199958  .00000618  00000-0  69080-5 0  9994,2 55287  69.9985  59.7786 0003320 268.8165  91.2651 15.69928766 21366,6737.238,91.724,361.34,356.866,0.0
55287.0,STARLINK-5341,PAYLOAD,2023-05-30 20:28:09,15.69921689,0.0003294,69.9984,57.8089,267.4895,92.5924,5.7019e-06,4.73e-06,0.0,0 STARLINK-5341,1 55287U 23010U   23150.85288882  .00000473  00000-0  57019-5 0  9994,2 55287  69.9984  57.8089 0003294 267.4895  92.5924 15.69921689 21471,6737.258,91.724,361.342,356.904,0.0
55287.0,STARLINK-5341,PAYLOAD,2023-05-31 02:35:09,15.69926807,0.0003278,69.9987,57.0917,268.4727,91.6093,8.3689e-06,7.94e-06,0.0,0 STARLINK-5341,1 55287U 23010U   23151.10775225  .00000794  00000-0  83689-5 0  9993,2 55287  69.9987  57.0917 0003278 268.4727  91.6093 15.69926807 21208,6737.243,91.724,361.317,356.9,0.0
55287.0,STARLINK-5341,PAYLOAD,2023-05-31 04:06:54,15.6992594,0.0003232,69.999,56.9141,265.0738,95.0089,1.1498e-05,1.17e-05,0.0,0 STARLINK-5341,1 55287U 23010U   23151.17146906  .00001170  00000-0  11498-4 0  9995,2 55287  69.9990  56.9141 0003232 265.0738  95.0089 15.69925940 21529,6737.246,91.724,361.288,356.933,0.0
55287.0,STARLINK-5341,PAYLOAD,2023-05-31 20:56:11,15.69933982,0.0003582,69.9976,54.945,251.7328,108.3478,-1.7895e-05,-2.365e-05,0.0,0 STARLINK-5341,1 55287U 23010U   23151.87235321 -.00002365  00000-0 -17895-4 0  9998,2 55287  69.9976  54.9450 0003582 251.7328 108.3478 15.69933982 21636,6737.223,91.724,361.501,356.675,0.0
55287.0,STARLINK-5341,PAYLOAD,2023-06-01 03:03:11,15.69930467,0.0003745,69.9974,54.2282,261.1456,98.9316,2.5047e-06,8.8e-07,0.0,0 STARLINK-5341,1 55287U 23010U   23152.12721762  .00000088  00000-0  25047-5 0  9993,2 55287  69.9974  54.2282 0003745 261.1456  98.9316 15.69930467 21672,6737.233,91.724,361.621,356.575,0.0
55287.0,STARLINK-5341,PAYLOAD,2023-06-02 01:59:28,15.69928394,0.0003511,69.9979,51.54,261.5111,98.5687,7.3304e-06,6.69e-06,0.0,0 STARLINK-5341,1 55287U 23010U   23153.08297042  .00000669  00000-0  73304-5 0  9992,2 55287  69.9979  51.5400 0003511 261.5111  98.5687 15.69928394 21518,6737.239,91.724,361.469,356.738,0.0
55287.0,STARLINK-5341,PAYLOAD,2023-06-02 03:31:13,15.69925694,0.0003343,69.9984,51.3604,262.2768,97.8048,5.2998e-06,4.25e-06,0.0,0 STARLINK-5341,1 55287U 23010U   23153.14668861  .00000425  00000-0  52998-5 0  9996,2 55287  69.9984  51.3604 0003343 262.2768  97.8048 15.69925694 21835,6737.247,91.724,361.364,356.859,0.0
55287.0,STARLINK-5341,PAYLOAD,2023-06-02 18:48:45,15.69916702,0.0003551,69.997,49.5651,275.3019,84.7772,2.4125e-05,2.688e-05,0.0,0 STARLINK-5341,1 55287U 23010U   23153.78385815  .00002688  00000-0  24125-4 0  9994,2 55287  69.9970  49.5651 0003551 275.3019  84.7772 15.69916702 21622,6737.272,91.725,361.53,356.745,0.0
55287.0,STARLINK-5341,PAYLOAD,2023-06-02 20:20:30,15.69916703,0.0003518,69.9971,49.3857,275.042,85.0374,2.4642e-05,2.75e-05,0.0,0 STARLINK-5341,1 55287U 23010U   23153.84757512  .00002750  00000-0  24642-4 0  9992,2 55287  69.9971  49.3857 0003518 275.0420  85.0374 15.69916703 21943,6737.272,91.725,361.507,356.767,0.0
55287.0,STARLINK-5341,PAYLOAD,2023-06-03 02:27:31,15.69918788,0.0003189,69.9975,48.6731,258.8174,101.2663,1.0883e-05,1.096e-05,0.0,0 STARLINK-5341,1 55287U 23010U   23154.10244473  .00001096  00000-0  10883-4 0  9993,2 55287  69.9975  48.6731 0003189 258.8174 101.2663 15.69918788 21980,6737.266,91.724,361.28,356.983,0.0
55287.0,STARLINK-5341,PAYLOAD,2023-06-03 19:16:47,15.69925677,0.0003395,69.9982,46.7012,262.7654,97.3156,6.7282e-06,5.96e-06,0.0,0 STARLINK-5341,1 55287U 23010U   23154.80332530  .00000596  00000-0  67282-5 0  9992,2 55287  69.9982  46.7012 0003395 262.7654  97.3156 15.69925677 21780,6737.247,91.724,361.399,356.824,0.0
55287.0,STARLINK-5341,PAYLOAD,2023-06-03 20:48:32,15.69927051,0.0003347,69.9985,46.5225,262.2865,97.795,8.5866e-06,8.2e-06,0.0,0 STARLINK-5341,1 55287U 23010U   23154.86704106  .00000820  00000-0  85866-5 0  9998,2 55287  69.9985  46.5225 0003347 262.2865  97.7950 15.69927051 22104,6737.243,91.724,361.363,356.853,0.0
55287.0,STARLINK-5341,PAYLOAD,2023-06-04 01:23:47,15.69934532,0.0003383,69.9981,45.9857,264.1813,95.8997,1.7573e-05,1.902e-05,0.0,0 STARLINK-5341,1 55287U 23010U   23155.05818508  .00001902  00000-0  17573-4 0  9993,2 55287  69.9981  45.9857 0003383 264.1813  95.8997 15.69934532 21828,6737.221,91.724,361.366,356.807,0.0
55287.0,STARLINK-5341,PAYLOAD,2023-06-04 19:44:49,15.69928678,0.0003549,69.9982,43.8373,268.6384,91.4405,7.6975e-06,7.13e-06,0.0,0 STARLINK-5341,1 55287U 23010U   23155.82279117  .00000713  00000-0  76975-5 0  9996,2 55287  69.9982  43.8373 0003549 268.6384  91.4405 15.69928678 21948,6737.238,91.724,361.494,356.712,0.0
